{
  "type": "FeatureCollection",
  "features": [
    {
      "type": "Feature",
      "properties": {
        "norad_id": 58647,
        "name": "TIANMU-1 13",
        "group": "weather",
        "lat": -43.46040483359273,
        "lon": 174.5373189930528,
        "alt_km": 497.51093968639634,
        "timestamp": "2025-12-07T20:38:13.723693+00:00",
        "meta_object_name": "TIANMU-1 13",
        "meta_object_id": "2023-205C",
        "meta_epoch": "2025-12-07T05:28:45.574464",
        "meta_mean_motion": 15.24421488,
        "meta_eccentricity": 0.00061524,
        "meta_inclination": 97.3619,
        "meta_ra_of_asc_node": 0.9546,
        "meta_arg_of_pericenter": 292.2775,
        "meta_mean_anomaly": 67.781,
        "meta_ephemeris_type": 0,
        "meta_classification_type": "U",
        "meta_norad_cat_id": 58647,
        "meta_element_set_no": 999,
        "meta_rev_at_epoch": 10823,
        "meta_bstar": 0.0003954949,
        "meta_mean_motion_dot": 9.638e-05,
        "meta_mean_motion_ddot": 0,
        "tle_line1": "1 58647U 23205C   25341.22830526  .00009638  00000+0  39549-3 0  9993",
        "tle_line2": "2 58647  97.3619   0.9546 0006152 292.2775  67.7810 15.24421488108231"
      },
      "geometry": {
        "type": "Point",
        "coordinates": [
          174.5373189930528,
          -43.46040483359273
        ]
      }
    },
    {
      "type": "Feature",
      "properties": {
        "norad_id": 58648,
        "name": "TIANMU-1 14",
        "group": "weather",
        "lat": -44.38776204514991,
        "lon": 8.192340711659407,
        "alt_km": 494.76664293864815,
        "timestamp": "2025-12-07T20:38:13.723709+00:00",
        "meta_object_name": "TIANMU-1 14",
        "meta_object_id": "2023-205D",
        "meta_epoch": "2025-12-07T05:04:46.121088",
        "meta_mean_motion": 15.24405084,
        "meta_eccentricity": 0.00070398,
        "meta_inclination": 97.3551,
        "meta_ra_of_asc_node": 0.2922,
        "meta_arg_of_pericenter": 297.086,
        "meta_mean_anomaly": 62.9659,
        "meta_ephemeris_type": 0,
        "meta_classification_type": "U",
        "meta_norad_cat_id": 58648,
        "meta_element_set_no": 999,
        "meta_rev_at_epoch": 10823,
        "meta_bstar": 0.00040780986,
        "meta_mean_motion_dot": 9.938e-05,
        "meta_mean_motion_ddot": 0,
        "tle_line1": "1 58648U 23205D   25341.21164492  .00009938  00000+0  40781-3 0  9998",
        "tle_line2": "2 58648  97.3551   0.2922 0007039 297.0860  62.9659 15.24405084108233"
      },
      "geometry": {
        "type": "Point",
        "coordinates": [
          8.192340711659407,
          -44.38776204514991
        ]
      }
    },
    {
      "type": "Feature",
      "properties": {
        "norad_id": 58660,
        "name": "TIANMU-1 19",
        "group": "weather",
        "lat": 27.809172479121855,
        "lon": -83.14033665131875,
        "alt_km": 483.08691780672416,
        "timestamp": "2025-12-07T20:38:13.723728+00:00",
        "meta_object_name": "TIANMU-1 19",
        "meta_object_id": "2023-208A",
        "meta_epoch": "2025-12-07T05:49:35.120640",
        "meta_mean_motion": 15.27700204,
        "meta_eccentricity": 0.00040296,
        "meta_inclination": 97.4397,
        "meta_ra_of_asc_node": 92.2918,
        "meta_arg_of_pericenter": 277.8097,
        "meta_mean_anomaly": 82.2684,
        "meta_ephemeris_type": 0,
        "meta_classification_type": "U",
        "meta_norad_cat_id": 58660,
        "meta_element_set_no": 999,
        "meta_rev_at_epoch": 10798,
        "meta_bstar": 0.00053114985,
        "meta_mean_motion_dot": 0.00014319,
        "meta_mean_motion_ddot": 0,
        "tle_line1": "1 58660U 23208A   25341.24276760  .00014319  00000+0  53115-3 0  9994",
        "tle_line2": "2 58660  97.4397  92.2918 0004029 277.8097  82.2684 15.27700204107985"
      },
      "geometry": {
        "type": "Point",
        "coordinates": [
          -83.14033665131875,
          27.809172479121855
        ]
      }
    },
    {
      "type": "Feature",
      "properties": {
        "norad_id": 58661,
        "name": "TIANMU-1 20",
        "group": "weather",
        "lat": -25.034543461798673,
        "lon": -90.14556641070325,
        "alt_km": 484.1437750585237,
        "timestamp": "2025-12-07T20:38:13.723744+00:00",
        "meta_object_name": "TIANMU-1 20",
        "meta_object_id": "2023-208B",
        "meta_epoch": "2025-12-07T05:36:18.278496",
        "meta_mean_motion": 15.28891248,
        "meta_eccentricity": 0.00063447,
        "meta_inclination": 97.4333,
        "meta_ra_of_asc_node": 92.7248,
        "meta_arg_of_pericenter": 289.1798,
        "meta_mean_anomaly": 70.8755,
        "meta_ephemeris_type": 0,
        "meta_classification_type": "U",
        "meta_norad_cat_id": 58661,
        "meta_element_set_no": 999,
        "meta_rev_at_epoch": 10805,
        "meta_bstar": 0.0005035053,
        "meta_mean_motion_dot": 0.00014076,
        "meta_mean_motion_ddot": 0,
        "tle_line1": "1 58661U 23208B   25341.23354489  .00014076  00000+0  50351-3 0  9998",
        "tle_line2": "2 58661  97.4333  92.7248 0006344 289.1798  70.8755 15.28891248108054"
      },
      "geometry": {
        "type": "Point",
        "coordinates": [
          -90.14556641070325,
          -25.034543461798673
        ]
      }
    },
    {
      "type": "Feature",
      "properties": {
        "norad_id": 58662,
        "name": "TIANMU-1 21",
        "group": "weather",
        "lat": 13.724169001825476,
        "lon": -82.9345950520055,
        "alt_km": 474.5033428396464,
        "timestamp": "2025-12-07T20:38:13.723754+00:00",
        "meta_object_name": "TIANMU-1 21",
        "meta_object_id": "2023-208C",
        "meta_epoch": "2025-12-07T05:47:59.533728",
        "meta_mean_motion": 15.31376077,
        "meta_eccentricity": 0.00059009,
        "meta_inclination": 97.4382,
        "meta_ra_of_asc_node": 94.6168,
        "meta_arg_of_pericenter": 283.2817,
        "meta_mean_anomaly": 76.7765,
        "meta_ephemeris_type": 0,
        "meta_classification_type": "U",
        "meta_norad_cat_id": 58662,
        "meta_element_set_no": 999,
        "meta_rev_at_epoch": 10815,
        "meta_bstar": 0.00055156835,
        "meta_mean_motion_dot": 0.00016662,
        "meta_mean_motion_ddot": 0,
        "tle_line1": "1 58662U 23208C   25341.24166127  .00016662  00000+0  55157-3 0  9992",
        "tle_line2": "2 58662  97.4382  94.6168 0005900 283.2817  76.7765 15.31376077108154"
      },
      "geometry": {
        "type": "Point",
        "coordinates": [
          -82.9345950520055,
          13.724169001825476
        ]
      }
    },
    {
      "type": "Feature",
      "properties": {
        "norad_id": 58663,
        "name": "TIANMU-1 22",
        "group": "weather",
        "lat": 22.408646600120377,
        "lon": -83.94266611342589,
        "alt_km": 484.8969633859897,
        "timestamp": "2025-12-07T20:38:13.723764+00:00",
        "meta_object_name": "TIANMU-1 22",
        "meta_object_id": "2023-208D",
        "meta_epoch": "2025-12-07T05:48:01.935648",
        "meta_mean_motion": 15.2746525,
        "meta_eccentricity": 0.00028541,
        "meta_inclination": 97.4391,
        "meta_ra_of_asc_node": 92.3523,
        "meta_arg_of_pericenter": 314.1116,
        "meta_mean_anomaly": 45.9888,
        "meta_ephemeris_type": 0,
        "meta_classification_type": "U",
        "meta_norad_cat_id": 58663,
        "meta_element_set_no": 999,
        "meta_rev_at_epoch": 10799,
        "meta_bstar": 0.00049573927,
        "meta_mean_motion_dot": 0.00013261,
        "meta_mean_motion_ddot": 0,
        "tle_line1": "1 58663U 23208D   25341.24168907  .00013261  00000+0  49574-3 0  9999",
        "tle_line2": "2 58663  97.4391  92.3523 0002854 314.1116  45.9888 15.27465250107998"
      },
      "geometry": {
        "type": "Point",
        "coordinates": [
          -83.94266611342589,
          22.408646600120377
        ]
      }
    },
    {
      "type": "Feature",
      "properties": {
        "norad_id": 58700,
        "name": "TIANMU-1 15",
        "group": "weather",
        "lat": -22.14917491081381,
        "lon": 166.4057015642166,
        "alt_km": 493.92264780352434,
        "timestamp": "2025-12-07T20:38:13.723774+00:00",
        "meta_object_name": "TIANMU-1 15",
        "meta_object_id": "2024-004A",
        "meta_epoch": "2025-12-07T06:33:28.509696",
        "meta_mean_motion": 15.24570025,
        "meta_eccentricity": 0.00055074,
        "meta_inclination": 97.4626,
        "meta_ra_of_asc_node": 162.7628,
        "meta_arg_of_pericenter": 320.748,
        "meta_mean_anomaly": 39.3358,
        "meta_ephemeris_type": 0,
        "meta_classification_type": "U",
        "meta_norad_cat_id": 58700,
        "meta_element_set_no": 999,
        "meta_rev_at_epoch": 10651,
        "meta_bstar": 0.00044080144,
        "meta_mean_motion_dot": 0.00010797,
        "meta_mean_motion_ddot": 0,
        "tle_line1": "1 58700U 24004A   25341.27324664  .00010797  00000+0  44080-3 0  9991",
        "tle_line2": "2 58700  97.4626 162.7628 0005507 320.7480  39.3358 15.24570025106514"
      },
      "geometry": {
        "type": "Point",
        "coordinates": [
          166.4057015642166,
          -22.14917491081381
        ]
      }
    }
  ]
}